[{"OBJECT_NAME":"ONEWEB-0412","OBJECT_ID":"2021-132W","EPOCH":"2025-11-23T04:12:52.538976","MEAN_MOTION":13.18684525,"ECCENTRICITY":0.0002094,"INCLINATION":87.9203,"RA_OF_ASC_NODE":16.3746,"ARG_OF_PERICENTER":107.181,"MEAN_ANOMALY":252.9551,"EPHEMERIS_TYPE":0,"CLASSIFICATION_TYPE":"U","NORAD_CAT_ID":50489,"ELEMENT_SET_NO":999,"REV_AT_EPOCH":19450,"BSTAR":0.00017902,"MEAN_MOTION_DOT":8.3e-7,"MEAN_MOTION_DDOT":0},{"OBJECT_NAME":"ONEWEB-0413","OBJECT_ID":"2021-132X","EPOCH":"2025-11-23T04:20:01.509792","MEAN_MOTION":13.18686355,"ECCENTRICITY":0.000215,"INCLINATION":87.9192,"RA_OF_ASC_NODE":16.3884,"ARG_OF_PERICENTER":102.5801,"MEAN_ANOMALY":257.5572,"EPHEMERIS_TYPE":0,"CLASSIFICATION_TYPE":"U","NORAD_CAT_ID":50490,"ELEMENT_SET_NO":999,"REV_AT_EPOCH":19444,"BSTAR":0.00022694,"MEAN_MOTION_DOT":1.02e-6,"MEAN_MOTION_DDOT":0},{"OBJECT_NAME":"ONEWEB-0414","OBJECT_ID":"2021-132Y","EPOCH":"2025-11-23T03:58:37.304256","MEAN_MOTION":13.18684505,"ECCENTRICITY":0.0001858,"INCLINATION":87.9204,"RA_OF_ASC_NODE":16.3528,"ARG_OF_PERICENTER":105.4529,"MEAN_ANOMALY":254.6808,"EPHEMERIS_TYPE":0,"CLASSIFICATION_TYPE":"U","NORAD_CAT_ID":50491,"ELEMENT_SET_NO":999,"REV_AT_EPOCH":19447,"BSTAR":0.00022055,"MEAN_MOTION_DOT":1.0e-6,"MEAN_MOTION_DDOT":0},{"OBJECT_NAME":"ONEWEB-0417","OBJECT_ID":"2021-132Z","EPOCH":"2025-11-23T04:10:29.868384","MEAN_MOTION":13.18684282,"ECCENTRICITY":0.0001634,"INCLINATION":87.9204,"RA_OF_ASC_NODE":16.3848,"ARG_OF_PERICENTER":99.6383,"MEAN_ANOMALY":260.4934,"EPHEMERIS_TYPE":0,"CLASSIFICATION_TYPE":"U","NORAD_CAT_ID":50492,"ELEMENT_SET_NO":999,"REV_AT_EPOCH":19445,"BSTAR":7.2003e-5,"MEAN_MOTION_DOT":4.1e-7,"MEAN_MOTION_DDOT":0},{"OBJECT_NAME":"ONEWEB-0418","OBJECT_ID":"2021-132AA","EPOCH":"2025-11-23T04:24:33.114240","MEAN_MOTION":13.18688449,"ECCENTRICITY":0.0001361,"INCLINATION":87.9202,"RA_OF_ASC_NODE":16.3675,"ARG_OF_PERICENTER":101.0376,"MEAN_ANOMALY":259.0909,"EPHEMERIS_TYPE":0,"CLASSIFICATION_TYPE":"U","NORAD_CAT_ID":50493,"ELEMENT_SET_NO":999,"REV_AT_EPOCH":19451,"BSTAR":0.00012458,"MEAN_MOTION_DOT":6.2e-7,"MEAN_MOTION_DDOT":0},{"OBJECT_NAME":"ONEWEB-0419","OBJECT_ID":"2021-132AB","EPOCH":"2025-11-23T04:50:52.660032","MEAN_MOTION":13.18684159,"ECCENTRICITY":0.0001607,"INCLINATION":87.9203,"RA_OF_ASC_NODE":16.3641,"ARG_OF_PERICENTER":90.8743,"MEAN_ANOMALY":269.2573,"EPHEMERIS_TYPE":0,"CLASSIFICATION_TYPE":"U","NORAD_CAT_ID":50494,"ELEMENT_SET_NO":999,"REV_AT_EPOCH":19443,"BSTAR":-7.5227e-5,"MEAN_MOTION_DOT":-1.7e-7,"MEAN_MOTION_DDOT":0},{"OBJECT_NAME":"ONEWEB-0420","OBJECT_ID":"2021-132AC","EPOCH":"2025-11-23T04:01:00.947712","MEAN_MOTION":13.18688971,"ECCENTRICITY":0.0002044,"INCLINATION":87.9203,"RA_OF_ASC_NODE":16.3825,"ARG_OF_PERICENTER":99.3461,"MEAN_ANOMALY":260.7902,"EPHEMERIS_TYPE":0,"CLASSIFICATION_TYPE":"U","NORAD_CAT_ID":50495,"ELEMENT_SET_NO":999,"REV_AT_EPOCH":19442,"BSTAR":0.00023707,"MEAN_MOTION_DOT":1.06e-6,"MEAN_MOTION_DDOT":0},{"OBJECT_NAME":"ONEWEB-0421","OBJECT_ID":"2021-132AD","EPOCH":"2025-11-23T03:51:29.608704","MEAN_MOTION":13.18688837,"ECCENTRICITY":0.0001966,"INCLINATION":87.9203,"RA_OF_ASC_NODE":16.3772,"ARG_OF_PERICENTER":110.8562,"MEAN_ANOMALY":249.2781,"EPHEMERIS_TYPE":0,"CLASSIFICATION_TYPE":"U","NORAD_CAT_ID":50496,"ELEMENT_SET_NO":999,"REV_AT_EPOCH":19446,"BSTAR":0.00030935,"MEAN_MOTION_DOT":1.35e-6,"MEAN_MOTION_DDOT":0},{"OBJECT_NAME":"ONEWEB-0424","OBJECT_ID":"2021-132AE","EPOCH":"2025-11-23T04:43:45.069024","MEAN_MOTION":13.18688174,"ECCENTRICITY":0.0001718,"INCLINATION":87.9203,"RA_OF_ASC_NODE":16.3652,"ARG_OF_PERICENTER":86.7593,"MEAN_ANOMALY":273.3735,"EPHEMERIS_TYPE":0,"CLASSIFICATION_TYPE":"U","NORAD_CAT_ID":50497,"ELEMENT_SET_NO":999,"REV_AT_EPOCH":19449,"BSTAR":-4.4957e-5,"MEAN_MOTION_DOT":-5.0e-8,"MEAN_MOTION_DDOT":0},{"OBJECT_NAME":"ONEWEB-0426","OBJECT_ID":"2021-132AF","EPOCH":"2025-11-23T03:46:44.437728","MEAN_MOTION":13.18685156,"ECCENTRICITY":0.0001626,"INCLINATION":87.9204,"RA_OF_ASC_NODE":16.3645,"ARG_OF_PERICENTER":122.0929,"MEAN_ANOMALY":238.0361,"EPHEMERIS_TYPE":0,"CLASSIFICATION_TYPE":"U","NORAD_CAT_ID":50498,"ELEMENT_SET_NO":999,"REV_AT_EPOCH":19443,"BSTAR":0.00036777,"MEAN_MOTION_DOT":1.58e-6,"MEAN_MOTION_DDOT":0},{"OBJECT_NAME":"ONEWEB-0427","OBJECT_ID":"2021-132AG","EPOCH":"2025-11-23T04:41:23.485344","MEAN_MOTION":13.18684832,"ECCENTRICITY":0.0001596,"INCLINATION":87.9201,"RA_OF_ASC_NODE":16.3449,"ARG_OF_PERICENTER":100.3323,"MEAN_ANOMALY":259.7989,"EPHEMERIS_TYPE":0,"CLASSIFICATION_TYPE":"U","NORAD_CAT_ID":50499,"ELEMENT_SET_NO":999,"REV_AT_EPOCH":19446,"BSTAR":4.9686e-6,"MEAN_MOTION_DOT":1.5e-7,"MEAN_MOTION_DDOT":0},{"OBJECT_NAME":"ONEWEB-0429","OBJECT_ID":"2021-132AH","EPOCH":"2025-11-23T04:22:22.240704","MEAN_MOTION":13.18683987,"ECCENTRICITY":0.000202,"INCLINATION":87.9202,"RA_OF_ASC_NODE":16.3793,"ARG_OF_PERICENTER":97.441,"MEAN_ANOMALY":262.6952,"EPHEMERIS_TYPE":0,"CLASSIFICATION_TYPE":"U","NORAD_CAT_ID":50500,"ELEMENT_SET_NO":999,"REV_AT_EPOCH":19443,"BSTAR":9.3345e-5,"MEAN_MOTION_DOT":5.0e-7,"MEAN_MOTION_DDOT":0},{"OBJECT_NAME":"ONEWEB-0430","OBJECT_ID":"2021-132AJ","EPOCH":"2025-11-23T04:05:45.143232","MEAN_MOTION":13.18684878,"ECCENTRICITY":0.000196,"INCLINATION":87.9203,"RA_OF_ASC_NODE":16.3767,"ARG_OF_PERICENTER":90.3716,"MEAN_ANOMALY":269.7641,"EPHEMERIS_TYPE":0,"CLASSIFICATION_TYPE":"U","NORAD_CAT_ID":50501,"ELEMENT_SET_NO":999,"REV_AT_EPOCH":19447,"BSTAR":9.3959e-5,"MEAN_MOTION_DOT":5.0e-7,"MEAN_MOTION_DDOT":0},{"OBJECT_NAME":"ONEWEB-0432","OBJECT_ID":"2021-132AK","EPOCH":"2025-11-23T04:51:30.937824","MEAN_MOTION":13.18674847,"ECCENTRICITY":0.0001127,"INCLINATION":87.9198,"RA_OF_ASC_NODE":16.3438,"ARG_OF_PERICENTER":78.7382,"MEAN_ANOMALY":281.3877,"EPHEMERIS_TYPE":0,"CLASSIFICATION_TYPE":"U","NORAD_CAT_ID":50502,"ELEMENT_SET_NO":999,"REV_AT_EPOCH":19443,"BSTAR":9.6169e-5,"MEAN_MOTION_DOT":5.1e-7,"MEAN_MOTION_DDOT":0},{"OBJECT_NAME":"ONEWEB-0440","OBJECT_ID":"2021-132AL","EPOCH":"2025-11-23T04:34:14.524896","MEAN_MOTION":13.1868863,"ECCENTRICITY":0.0002174,"INCLINATION":87.9204,"RA_OF_ASC_NODE":16.3632,"ARG_OF_PERICENTER":108.1523,"MEAN_ANOMALY":251.9846,"EPHEMERIS_TYPE":0,"CLASSIFICATION_TYPE":"U","NORAD_CAT_ID":50503,"ELEMENT_SET_NO":999,"REV_AT_EPOCH":19442,"BSTAR":3.1451e-5,"MEAN_MOTION_DOT":2.5e-7,"MEAN_MOTION_DDOT":0},{"OBJECT_NAME":"ONEWEB-0450","OBJECT_ID":"2021-132AM","EPOCH":"2025-11-23T04:24:58.409568","MEAN_MOTION":13.18686318,"ECCENTRICITY":0.0002111,"INCLINATION":87.9197,"RA_OF_ASC_NODE":16.3873,"ARG_OF_PERICENTER":94.9009,"MEAN_ANOMALY":265.2364,"EPHEMERIS_TYPE":0,"CLASSIFICATION_TYPE":"U","NORAD_CAT_ID":50504,"ELEMENT_SET_NO":999,"REV_AT_EPOCH":19445,"BSTAR":5.6485e-5,"MEAN_MOTION_DOT":3.5e-7,"MEAN_MOTION_DDOT":0},{"OBJECT_NAME":"ONEWEB-0410","OBJECT_ID":"2022-012A","EPOCH":"2025-11-23T06:40:51.706272","MEAN_MOTION":13.17647502,"ECCENTRICITY":0.0001,"INCLINATION":87.9134,"RA_OF_ASC_NODE":46.7868,"ARG_OF_PERICENTER":154.9858,"MEAN_ANOMALY":205.1322,"EPHEMERIS_TYPE":0,"CLASSIFICATION_TYPE":"U","NORAD_CAT_ID":51622,"ELEMENT_SET_NO":999,"REV_AT_EPOCH":18658,"BSTAR":0.00033338,"MEAN_MOTION_DOT":1.42e-6,"MEAN_MOTION_DDOT":0}]
