ONEWEB-0412             
1 50489U 21132W   25327.17560809  .00000083  00000+0  17902-3 0  9992
2 50489  87.9203  16.3746 0002094 107.1810 252.9551 13.18684525194508
ONEWEB-0413             
1 50490U 21132X   25327.18057303  .00000102  00000+0  22694-3 0  9991
2 50490  87.9192  16.3884 0002150 102.5801 257.5572 13.18686355194442
ONEWEB-0414             
1 50491U 21132Y   25327.16570954  .00000100  00000+0  22055-3 0  9991
2 50491  87.9204  16.3528 0001858 105.4529 254.6808 13.18684505194473
ONEWEB-0417             
1 50492U 21132Z   25327.17395681  .00000041  00000+0  72003-4 0  9998
2 50492  87.9204  16.3848 0001634  99.6383 260.4934 13.18684282194458
ONEWEB-0418             
1 50493U 21132AA  25327.18371660  .00000062  00000+0  12458-3 0  9991
2 50493  87.9202  16.3675 0001361 101.0376 259.0909 13.18688449194514
ONEWEB-0419             
1 50494U 21132AB  25327.20199838 -.00000017  00000+0 -75227-4 0  9996
2 50494  87.9203  16.3641 0001607  90.8743 269.2573 13.18684159194430
ONEWEB-0420             
1 50495U 21132AC  25327.16737208  .00000106  00000+0  23707-3 0  9993
2 50495  87.9203  16.3825 0002044  99.3461 260.7902 13.18688971194429
ONEWEB-0421             
1 50496U 21132AD  25327.16075936  .00000135  00000+0  30935-3 0  9990
2 50496  87.9203  16.3772 0001966 110.8562 249.2781 13.18688837194466
ONEWEB-0424             
1 50497U 21132AE  25327.19704941 -.00000005  00000+0 -44957-4 0  9997
2 50497  87.9203  16.3652 0001718  86.7593 273.3735 13.18688174194498
ONEWEB-0426             
1 50498U 21132AF  25327.15745877  .00000158  00000+0  36777-3 0  9994
2 50498  87.9204  16.3645 0001626 122.0929 238.0361 13.18685156194431
ONEWEB-0427             
1 50499U 21132AG  25327.19541071  .00000015  00000+0  49686-5 0  9996
2 50499  87.9201  16.3449 0001596 100.3323 259.7989 13.18684832194463
ONEWEB-0429             
1 50500U 21132AH  25327.18220186  .00000050  00000+0  93345-4 0  9998
2 50500  87.9202  16.3793 0002020  97.4410 262.6952 13.18683987194435
ONEWEB-0430             
1 50501U 21132AJ  25327.17066138  .00000050  00000+0  93959-4 0  9994
2 50501  87.9203  16.3767 0001960  90.3716 269.7641 13.18684878194478
ONEWEB-0432             
1 50502U 21132AK  25327.20244141  .00000051  00000+0  96169-4 0  9998
2 50502  87.9198  16.3438 0001127  78.7382 281.3877 13.18674847194433
ONEWEB-0440             
1 50503U 21132AL  25327.19044589  .00000025  00000+0  31451-4 0  9995
2 50503  87.9204  16.3632 0002174 108.1523 251.9846 13.18688630194429
ONEWEB-0450             
1 50504U 21132AM  25327.18400937  .00000035  00000+0  56485-4 0  9993
2 50504  87.9197  16.3873 0002111  94.9009 265.2364 13.18686318194457
ONEWEB-0410             
1 51622U 22012A   25327.27837623  .00000142  00000+0  33338-3 0  9999
2 51622  87.9134  46.7868 0001000 154.9858 205.1322 13.17647502186589
